{"type": "FeatureCollection", "features": [ {"type": "Feature", "properties": {"norad_id": 35480, "name": "IRIDIUM 33 DEB", "group": "iridium-33-debris", "lat": -24.436788277253324, "lon": 22.57129294623318, "alt_km": 738.1171238404586, "timestamp": "2025-12-14T07:33:19.863689+00:00", "meta": {"OBJECT_NAME": "IRIDIUM 33 DEB", "OBJECT_ID": "1997-051QA", "EPOCH": "2025-12-09T19:59:43.135296", "MEAN_MOTION": 14.49744632, "ECCENTRICITY": 0.00159269, "INCLINATION": 86.357, "RA_OF_ASC_NODE": 26.1722, "ARG_OF_PERICENTER": 113.2937, "MEAN_ANOMALY": 246.9945, "EPHEMERIS_TYPE": 0, "CLASSIFICATION_TYPE": "U", "NORAD_CAT_ID": 35480, "ELEMENT_SET_NO": 999, "REV_AT_EPOCH": 86989, "BSTAR": 0.0009193458, "MEAN_MOTION_DOT": 3.565e-05, "MEAN_MOTION_DDOT": 0}, "tle": {"line1": "1 35480U 97051QA  25343.83313814  .00003565  00000+0  91935-3 0  9998", "line2": "2 35480  86.3570  26.1722 0015926 113.2937 246.9945 14.49744632869893"}}, "geometry": {"type": "Point", "coordinates": [22.57129294623318, -24.436788277253324]}}, {"type": "Feature", "properties": {"norad_id": 35484, "name": "IRIDIUM 33 DEB", "group": "iridium-33-debris", "lat": 57.46186514006086, "lon": -2.2671303220744257, "alt_km": 557.3341806957587, "timestamp": "2025-12-14T07:33:19.863700+00:00", "meta": {"OBJECT_NAME": "IRIDIUM 33 DEB", "OBJECT_ID": "1997-051QE", "EPOCH": "2025-12-13T07:15:48.307680", "MEAN_MOTION": 14.98714194, "ECCENTRICITY": 0.00237352, "INCLINATION": 86.3615, "RA_OF_ASC_NODE": 352.4822, "ARG_OF_PERICENTER": 123.3819, "MEAN_ANOMALY": 236.9688, "EPHEMERIS_TYPE": 0, "CLASSIFICATION_TYPE": "U", "NORAD_CAT_ID": 35484, "ELEMENT_SET_NO": 999, "REV_AT_EPOCH": 62024, "BSTAR": 0.0048114888, "MEAN_MOTION_DOT": 0.00058609, "MEAN_MOTION_DDOT": 0}, "tle": {"line1": "1 35484U 97051QE  25347.30264245  .00058609  00000+0  48115-2 0  9991", "line2": "2 35484  86.3615 352.4822 0023735 123.3819 236.9688 14.98714194620242"}}, "geometry": {"type": "Point", "coordinates": [-2.2671303220744257, 57.46186514006086]}}, {"type": "Feature", "properties": {"norad_id": 35488, "name": "IRIDIUM 33 DEB", "group": "iridium-33-debris", "lat": 78.32403599725271, "lon": -41.72585545415835, "alt_km": 596.6349185493627, "timestamp": "2025-12-14T07:33:19.863710+00:00", "meta": {"OBJECT_NAME": "IRIDIUM 33 DEB", "OBJECT_ID": "1997-051QJ", "EPOCH": "2025-12-12T14:43:12.684864", "MEAN_MOTION": 14.83053941, "ECCENTRICITY": 0.00298615, "INCLINATION": 86.3248, "RA_OF_ASC_NODE": 300.9369, "ARG_OF_PERICENTER": 43.3071, "MEAN_ANOMALY": 317.049, "EPHEMERIS_TYPE": 0, "CLASSIFICATION_TYPE": "U", "NORAD_CAT_ID": 35488, "ELEMENT_SET_NO": 999, "REV_AT_EPOCH": 88264, "BSTAR": 0.0023232859, "MEAN_MOTION_DOT": 0.00019104, "MEAN_MOTION_DDOT": 0}, "tle": {"line1": "1 35488U 97051QJ  25346.61334126  .00019104  00000+0  23233-2 0  9995", "line2": "2 35488  86.3248 300.9369 0029861  43.3071 317.0490 14.83053941882645"}}, "geometry": {"type": "Point", "coordinates": [-41.72585545415835, 78.32403599725271]}}, {"type": "Feature", "properties": {"norad_id": 35616, "name": "IRIDIUM 33 DEB", "group": "iridium-33-debris", "lat": -50.955676706956964, "lon": 169.5551048240379, "alt_km": 628.2550787190967, "timestamp": "2025-12-14T07:33:19.863720+00:00", "meta": {"OBJECT_NAME": "IRIDIUM 33 DEB", "OBJECT_ID": "1997-051QN", "EPOCH": "2025-12-13T06:12:25.260480", "MEAN_MOTION": 14.81841111, "ECCENTRICITY": 0.00102457, "INCLINATION": 86.3535, "RA_OF_ASC_NODE": 345.5275, "ARG_OF_PERICENTER": 162.0013, "MEAN_ANOMALY": 198.1574, "EPHEMERIS_TYPE": 0, "CLASSIFICATION_TYPE": "U", "NORAD_CAT_ID": 35616, "ELEMENT_SET_NO": 999, "REV_AT_EPOCH": 87582, "BSTAR": 0.0030119844, "MEAN_MOTION_DOT": 0.00023901, "MEAN_MOTION_DDOT": 0}, "tle": {"line1": "1 35616U 97051QN  25347.25862570  .00023901  00000+0  30120-2 0  9991", "line2": "2 35616  86.3535 345.5275 0010245 162.0013 198.1574 14.81841111875824"}}, "geometry": {"type": "Point", "coordinates": [169.5551048240379, -50.955676706956964]}}, {"type": "Feature", "properties": {"norad_id": 35618, "name": "IRIDIUM 33 DEB", "group": "iridium-33-debris", "lat": -9.871777615374937, "lon": 173.4523776992289, "alt_km": 743.6308393226955, "timestamp": "2025-12-14T07:33:19.863730+00:00", "meta": {"OBJECT_NAME": "IRIDIUM 33 DEB", "OBJECT_ID": "1997-051QQ", "EPOCH": "2025-12-05T07:42:53.148672", "MEAN_MOTION": 14.52258119, "ECCENTRICITY": 0.00302089, "INCLINATION": 86.3407, "RA_OF_ASC_NODE": 356.7447, "ARG_OF_PERICENTER": 46.3254, "MEAN_ANOMALY": 314.0448, "EPHEMERIS_TYPE": 0, "CLASSIFICATION_TYPE": "U", "NORAD_CAT_ID": 35618, "ELEMENT_SET_NO": 999, "REV_AT_EPOCH": 65286, "BSTAR": 0.00091388234, "MEAN_MOTION_DOT": 3.753e-05, "MEAN_MOTION_DDOT": 0}, "tle": {"line1": "1 35618U 97051QQ  25339.32144848  .00003753  00000+0  91388-3 0  9990", "line2": "2 35618  86.3407 356.7447 0030208  46.3254 314.0448 14.52258119652865"}}, "geometry": {"type": "Point", "coordinates": [173.4523776992289, -9.871777615374937]}}, {"type": "Feature", "properties": {"norad_id": 35620, "name": "IRIDIUM 33 DEB", "group": "iridium-33-debris", "lat": 86.2160221590352, "lon": -35.9349130984632, "alt_km": 853.391296084922, "timestamp": "2025-12-14T07:33:19.863741+00:00", "meta": {"OBJECT_NAME": "IRIDIUM 33 DEB", "OBJECT_ID": "1997-051QS", "EPOCH": "2025-12-12T01:41:06.603648", "MEAN_MOTION": 14.38023351, "ECCENTRICITY": 0.01413324, "INCLINATION": 86.3886, "RA_OF_ASC_NODE": 217.736, "ARG_OF_PERICENTER": 261.1948, "MEAN_ANOMALY": 97.3224, "EPHEMERIS_TYPE": 0, "CLASSIFICATION_TYPE": "U", "NORAD_CAT_ID": 35620, "ELEMENT_SET_NO": 999, "REV_AT_EPOCH": 59956, "BSTAR": 0.0071195038, "MEAN_MOTION_DOT": 0.00024261, "MEAN_MOTION_DDOT": 0}, "tle": {"line1": "1 35620U 97051QS  25346.07021532  .00024261  00000+0  71195-2 0  9997", "line2": "2 35620  86.3886 217.7360 0141332 261.1948  97.3224 14.38023351599569"}}, "geometry": {"type": "Point", "coordinates": [-35.9349130984632, 86.2160221590352]}}, {"type": "Feature", "properties": {"norad_id": 35622, "name": "IRIDIUM 33 DEB", "group": "iridium-33-debris", "lat": -15.171069009823459, "lon": 83.85922754418212, "alt_km": 558.7999005529973, "timestamp": "2025-12-14T07:33:19.863751+00:00", "meta": {"OBJECT_NAME": "IRIDIUM 33 DEB", "OBJECT_ID": "1997-051QU", "EPOCH": "2025-12-13T12:18:27.452736", "MEAN_MOTION": 15.04855982, "ECCENTRICITY": 0.00058138, "INCLINATION": 86.204, "RA_OF_ASC_NODE": 263.2227, "ARG_OF_PERICENTER": 326.3099, "MEAN_ANOMALY": 206.7001, "EPHEMERIS_TYPE": 0, "CLASSIFICATION_TYPE": "U", "NORAD_CAT_ID": 35622, "ELEMENT_SET_NO": 999, "REV_AT_EPOCH": 87371, "BSTAR": 0.007661382, "MEAN_MOTION_DOT": 0.00109841, "MEAN_MOTION_DDOT": 0}, "tle": {"line1": "1 35622U 97051QU  25347.51281774  .00109841  00000+0  76614-2 0  9994", "line2": "2 35622  86.2040 263.2227 0005813 326.3099 206.7001 15.04855982873712"}}, "geometry": {"type": "Point", "coordinates": [83.85922754418212, -15.171069009823459]}}, {"type": "Feature", "properties": {"norad_id": 35628, "name": "IRIDIUM 33 DEB", "group": "iridium-33-debris", "lat": 6.600163832497722, "lon": -172.04885138015854, "alt_km": 677.9263543291563, "timestamp": "2025-12-14T07:33:19.863762+00:00", "meta": {"OBJECT_NAME": "IRIDIUM 33 DEB", "OBJECT_ID": "1997-051RA", "EPOCH": "2025-12-12T18:46:03.477216", "MEAN_MOTION": 14.67584351, "ECCENTRICITY": 0.00103833, "INCLINATION": 86.3581, "RA_OF_ASC_NODE": 9.0566, "ARG_OF_PERICENTER": 342.8162, "MEAN_ANOMALY": 17.2699, "EPHEMERIS_TYPE": 0, "CLASSIFICATION_TYPE": "U", "NORAD_CAT_ID": 35628, "ELEMENT_SET_NO": 999, "REV_AT_EPOCH": 86447, "BSTAR": 0.0018776311, "MEAN_MOTION_DOT": 0.00010694, "MEAN_MOTION_DDOT": 0}, "tle": {"line1": "1 35628U 97051RA  25346.78198469  .00010694  00000+0  18776-2 0  9998", "line2": "2 35628  86.3581   9.0566 0010383 342.8162  17.2699 14.67584351864471"}}, "geometry": {"type": "Point", "coordinates": [-172.04885138015854, 6.600163832497722]}}, {"type": "Feature", "properties": {"norad_id": 35631, "name": "IRIDIUM 33 DEB", "group": "iridium-33-debris", "lat": -45.510734147412315, "lon": 16.58980458376981, "alt_km": 753.888117071142, "timestamp": "2025-12-14T07:33:19.863772+00:00", "meta": {"OBJECT_NAME": "IRIDIUM 33 DEB", "OBJECT_ID": "1997-051RD", "EPOCH": "2025-12-13T08:35:52.941696", "MEAN_MOTION": 14.47314352, "ECCENTRICITY": 0.00190886, "INCLINATION": 86.3675, "RA_OF_ASC_NODE": 20.7093, "ARG_OF_PERICENTER": 116.1706, "MEAN_ANOMALY": 257.5485, "EPHEMERIS_TYPE": 0, "CLASSIFICATION_TYPE": "U", "NORAD_CAT_ID": 35631, "ELEMENT_SET_NO": 999, "REV_AT_EPOCH": 87206, "BSTAR": 0.00058903545, "MEAN_MOTION_DOT": 2.18e-05, "MEAN_MOTION_DDOT": 0}, "tle": {"line1": "1 35631U 97051RD  25347.35825164  .00002180  00000+0  58904-3 0  9994", "line2": "2 35631  86.3675  20.7093 0019088 116.1706 257.5485 14.47314352872067"}}, "geometry": {"type": "Point", "coordinates": [16.58980458376981, -45.510734147412315]}}, {"type": "Feature", "properties": {"norad_id": 35680, "name": "IRIDIUM 33 DEB", "group": "iridium-33-debris", "lat": 44.82970366411096, "lon": -163.06028157257023, "alt_km": 898.7812711452243, "timestamp": "2025-12-14T07:33:19.863782+00:00", "meta": {"OBJECT_NAME": "IRIDIUM 33 DEB", "OBJECT_ID": "1997-051RJ", "EPOCH": "2025-12-13T09:13:25.254912", "MEAN_MOTION": 14.20938352, "ECCENTRICITY": 0.01504857, "INCLINATION": 86.103, "RA_OF_ASC_NODE": 21.2368, "ARG_OF_PERICENTER": 276.4463, "MEAN_ANOMALY": 142.7573, "EPHEMERIS_TYPE": 0, "CLASSIFICATION_TYPE": "U", "NORAD_CAT_ID": 35680, "ELEMENT_SET_NO": 999, "REV_AT_EPOCH": 60710, "BSTAR": 0.0061528167, "MEAN_MOTION_DOT": 0.00014968, "MEAN_MOTION_DDOT": 0}, "tle": {"line1": "1 35680U 97051RJ  25347.38432008  .00014968  00000+0  61528-2 0  9994", "line2": "2 35680  86.1030  21.2368 0150485 276.4463 142.7573 14.20938352607109"}}, "geometry": {"type": "Point", "coordinates": [-163.06028157257023, 44.82970366411096]}}]}